     2.10           G: GLONASS NAV DATA                     RINEX VERSION / TYPE
teqc  2015Jun23                         20211211 01:26:21UTCPGM / RUN BY / DATE
Linux 2.4.21-27.ELsmp|Opteron|gcc -static|Linux x86_64|=+   COMMENT
  2021    11    17   -4.656612873077D-10                    CORR TO SYSTEM TIME
                                                            END OF HEADER
 2 21 11 18  0 15  0.0 5.004331469536D-04 1.818989403546D-12 0.000000000000D+00
   -2.857481933594D+03-8.186998367310D-01-0.000000000000D+00 0.000000000000D+00
    1.716117138672D+04-2.420259475708D+00-9.313225746155D-10-4.000000000000D+00
    1.871708593750D+04 2.091576576233D+00-1.862645149231D-09 0.000000000000D+00
17 21 11 18  0 15  0.0 4.758629947901D-04 2.728484105319D-12 0.000000000000D+00
   -4.373852050781D+03-1.385274887085D+00-9.313225746155D-10 0.000000000000D+00
    1.806862451172D+04 1.955493927002D+00-9.313225746155D-10 4.000000000000D+00
    1.745591992188D+04-2.377064704895D+00-1.862645149231D-09 0.000000000000D+00
 3 21 11 18  0 15  0.0 4.663038998842D-05 9.094947017729D-13 0.000000000000D+00
    7.467367187500D+03-4.060745239258D-02-0.000000000000D+00 0.000000000000D+00
    2.411252783203D+04-5.548877716064D-01-1.862645149231D-09 5.000000000000D+00
    3.923254882812D+03 3.513613700867D+00-0.000000000000D+00 0.000000000000D+00
 4 21 11 18  0 15  0.0 1.147342845798D-04 1.818989403546D-12 0.000000000000D+00
    1.330379296875D+04 7.826900482178D-01-0.000000000000D+00 0.000000000000D+00
    1.752366601562D+04 1.594811439514D+00-1.862645149231D-09 6.000000000000D+00
   -1.290021923828D+04 2.967620849609D+00 1.862645149231D-09 0.000000000000D+00
23 21 11 18  0 15  0.0-2.035219222307D-05-9.094947017729D-13 0.000000000000D+00
   -1.798758154297D+04 1.258935928345D+00-4.656612873077D-09 0.000000000000D+00
    1.299758837891D+04-1.197077751160D+00 0.000000000000D+00 3.000000000000D+00
   -1.257356054688D+04-3.039370536804D+00-0.000000000000D+00 0.000000000000D+00
24 21 11 18  0 15  0.0 6.741844117641D-05 1.818989403546D-12 0.000000000000D+00
   -1.557463818359D+04-1.206779479980D-02-3.725290298462D-09 0.000000000000D+00
    2.011154150391D+04 3.008193969727D-01-0.000000000000D+00 2.000000000000D+00
    1.769152832031D+03-3.571525573730D+00-1.862645149231D-09 0.000000000000D+00
13 21 11 18  0 15  0.0-6.371457129717D-05-0.000000000000D+00 3.900000000000D+02
   -1.295822705078D+04-2.778444290161D+00-4.656612873077D-09 0.000000000000D+00
    8.119614257812D+03-2.990150451660D-01 9.313225746155D-10-2.000000000000D+00
   -2.042805175781D+04 1.644936561584D+00 0.000000000000D+00 0.000000000000D+00
14 21 11 18  0 15  0.0 7.112324237823D-05 0.000000000000D+00 1.230000000000D+03
    7.072620117188D+03-2.924530029297D+00-1.862645149231D-09 0.000000000000D+00
    1.154524169922D+04-4.634208679199D-01-9.313225746155D-10-7.000000000000D+00
   -2.160214843750D+04-1.205449104309D+00 1.862645149231D-09 0.000000000000D+00
 2 21 11 18  0 45  0.0 5.004368722439D-04 1.818989403546D-12 1.800000000000D+03
   -4.822254394531D+03-1.362676620483D+00-0.000000000000D+00 0.000000000000D+00
    1.256991015625D+04-2.631684303284D+00-0.000000000000D+00-4.000000000000D+00
    2.171377441406D+04 1.216497421265D+00-2.793967723846D-09 0.000000000000D+00
 4 21 11 18  0 45  0.0 1.147370785475D-04 1.818989403546D-12 1.800000000000D+03
    1.460853613281D+04 6.237401962280D-01-9.313225746155D-10 0.000000000000D+00
    1.966053173828D+04 7.745208740234D-01-1.862645149231D-09 6.000000000000D+00
   -7.128676269531D+03 3.403514862061D+00 9.313225746155D-10 0.000000000000D+00
 3 21 11 18  0 45  0.0 4.663318395615D-05 9.094947017729D-13 1.800000000000D+03
    6.981373535156D+03-5.278615951538D-01-9.313225746155D-10 0.000000000000D+00
    2.244561962891D+04-1.266409873962D+00-1.862645149231D-09 5.000000000000D+00
    1.001542431641D+04 3.211747169495D+00-9.313225746155D-10 0.000000000000D+00
14 21 11 18  0 45  0.0 7.112417370081D-05 0.000000000000D+00 1.800000000000D+03
    1.570828613281D+03-3.139014244080D+00-2.793967723846D-09 0.000000000000D+00
    1.108107958984D+04-4.027366638184D-02 0.000000000000D+00-7.000000000000D+00
   -2.290761718750D+04-2.356653213501D-01 9.313225746155D-10 0.000000000000D+00
17 21 11 18  0 45  0.0 4.758685827255D-04 2.728484105319D-12 1.800000000000D+03
   -6.275461425781D+03-7.339057922363D-01-1.862645149231D-09 0.000000000000D+00
    2.128160107422D+04 1.567669868469D+00-0.000000000000D+00 4.000000000000D+00
    1.255700439453D+04-3.030886650085D+00-1.862645149231D-09 0.000000000000D+00
23 21 11 18  0 45  0.0-2.035405486822D-05-9.094947017729D-13 1.800000000000D+03
   -1.554343701172D+04 1.410095214844D+00-4.656612873077D-09 0.000000000000D+00
    1.015945263672D+04-1.947066307068D+00 1.862645149231D-09 3.000000000000D+00
   -1.748756787109D+04-2.385201454163D+00-0.000000000000D+00 0.000000000000D+00
24 21 11 18  0 45  0.0 6.742123514414D-05 1.818989403546D-12 1.800000000000D+03
   -1.511126757812D+04 4.915618896484D-01-4.656612873077D-09 0.000000000000D+00
    1.999946289062D+04-4.469137191772D-01 0.000000000000D+00 2.000000000000D+00
   -4.644898925781D+03-3.508839607239D+00-9.313225746155D-10 0.000000000000D+00
13 21 11 18  0 45  0.0-6.371550261974D-05-0.000000000000D+00 2.400000000000D+03
   -1.755554980469D+04-2.286188125610D+00-4.656612873077D-09 0.000000000000D+00
    7.962119628906D+03 1.032772064209D-01 1.862645149231D-09-2.000000000000D+00
   -1.671654589844D+04 2.452259063721D+00-0.000000000000D+00 0.000000000000D+00
18 21 11 18  0 45  0.0 9.753648191690D-05 9.094947017729D-13 3.120000000000D+03
    5.173417480469D+03-1.565304756165D+00 9.313225746155D-10 0.000000000000D+00
    1.085038232422D+04 2.656366348267D+00-1.862645149231D-09-3.000000000000D+00
    2.252432128906D+04-9.168109893799D-01-1.862645149231D-09 0.000000000000D+00
18 21 11 18  1 15  0.0 9.754113852978D-05 9.094947017729D-13 3.600000000000D+03
    2.851042968750D+03-1.006699562073D+00-0.000000000000D+00 0.000000000000D+00
    1.558337792969D+04 2.551542282104D+00-9.313225746155D-10-3.000000000000D+00
    2.002720507812D+04-1.839737892151D+00-1.862645149231D-09 0.000000000000D+00
 3 21 11 18  1 15  0.0 4.663504660130D-05 9.094947017729D-13 3.600000000000D+03
    5.490609375000D+03-1.141679763794D+00-9.313225746155D-10 0.000000000000D+00
    1.968751660156D+04-1.755751609802D+00-1.862645149231D-09 5.000000000000D+00
    1.533702441406D+04 2.662978172302D+00-1.862645149231D-09 0.000000000000D+00
 4 21 11 18  1 15  0.0 1.147408038378D-04 1.818989403546D-12 3.600000000000D+03
    1.539818164062D+04 2.145185470581D-01-9.313225746155D-10 0.000000000000D+00
    2.032923046875D+04-1.723289489746D-02-1.862645149231D-09 6.000000000000D+00
   -8.059580078125D+02 3.576108932495D+00 0.000000000000D+00 0.000000000000D+00
14 21 11 18  1 15  0.0 7.112417370081D-05 0.000000000000D+00 3.600000000000D+03
   -4.043998535156D+03-3.048672676086D+00-3.725290298462D-09 0.000000000000D+00
    1.141168164062D+04 4.018011093140D-01 9.313225746155D-10-7.000000000000D+00
   -2.243968310547D+04 7.521762847900D-01 9.313225746155D-10 0.000000000000D+00
17 21 11 18  1 15  0.0 4.758741706610D-04 2.728484105319D-12 3.600000000000D+03
   -7.071143554688D+03-1.739187240601D-01-2.793967723846D-09 0.000000000000D+00
    2.355781298828D+04 9.239206314087D-01 0.000000000000D+00 4.000000000000D+00
    6.685657226562D+03-3.450437545776D+00-1.862645149231D-09 0.000000000000D+00
23 21 11 18  1 15  0.0-2.035684883595D-05-9.094947017729D-13 3.600000000000D+03
   -1.307334814453D+04 1.292613983154D+00-3.725290298462D-09 0.000000000000D+00
    6.056653320312D+03-2.583370208740D+00 1.862645149231D-09 3.000000000000D+00
   -2.104944042969D+04-1.546768188477D+00 0.000000000000D+00 0.000000000000D+00
24 21 11 18  1 15  0.0 6.742309778929D-05 9.094947017729D-13 3.600000000000D+03
   -1.394800830078D+04 7.583246231079D-01-4.656612873077D-09 0.000000000000D+00
    1.845733691406D+04-1.269635200500D+00 1.862645149231D-09 2.000000000000D+00
   -1.069909667969D+04-3.174248695374D+00-9.313225746155D-10 0.000000000000D+00
13 21 11 18  1 15  0.0-6.371643394232D-05-0.000000000000D+00 4.350000000000D+03
   -2.105397558594D+04-1.570862770081D+00-3.725290298462D-09 0.000000000000D+00
    8.391300781250D+03 3.397579193115D-01 2.793967723846D-09-2.000000000000D+00
   -1.171370361328D+04 3.070427894592D+00-9.313225746155D-10 0.000000000000D+00
13 21 11 18  1 45  0.0-6.371736526489D-05-0.000000000000D+00 5.400000000000D+03
   -2.313341552734D+04-7.274312973022D-01-2.793967723846D-09 0.000000000000D+00
    9.048491699219D+03 3.497133255005D-01 3.725290298462D-09-2.000000000000D+00
   -5.805618164062D+03 3.451521873474D+00-9.313225746155D-10 0.000000000000D+00
 3 21 11 18  1 45  0.0 4.663690924644D-05 9.094947017729D-13 5.400000000000D+03
    2.856388183594D+03-1.780102729797D+00-9.313225746155D-10 0.000000000000D+00
    1.628853076172D+04-1.973906517029D+00-9.313225746155D-10 5.000000000000D+00
    1.947899560547D+04 1.909482955933D+00-1.862645149231D-09 0.000000000000D+00
 4 21 11 18  1 45  0.0 1.147435978055D-04 1.818989403546D-12 5.400000000000D+03
    1.525784960938D+04-3.983535766602D-01-9.313225746155D-10 0.000000000000D+00
    1.968089990234D+04-6.725120544434D-01-1.862645149231D-09 6.000000000000D+00
    5.579082519531D+03 3.472366333008D+00-0.000000000000D+00 0.000000000000D+00
14 21 11 18  1 45  0.0 7.112510502338D-05 0.000000000000D+00 5.400000000000D+03
   -9.229312011719D+03-2.668008804321D+00-3.725290298462D-09 0.000000000000D+00
    1.247539355469D+04 7.574300765991D-01 2.793967723846D-09-7.000000000000D+00
   -2.023494775391D+04 1.681567192078D+00 0.000000000000D+00 0.000000000000D+00
17 21 11 18  1 45  0.0 4.758806899190D-04 2.728484105319D-12 5.400000000000D+03
   -7.012106933594D+03 2.030296325684D-01-3.725290298462D-09 0.000000000000D+00
    2.449876123047D+04 9.962940216064D-02 9.313225746155D-10 4.000000000000D+00
    2.961879882812D+02-3.602760314941D+00-9.313225746155D-10 0.000000000000D+00
